[{"OBJECT_NAME":"HORUS 1","OBJECT_ID":"2023-025A","EPOCH":"2026-03-09T23:16:57.631008","MEAN_MOTION":15.23575294,"ECCENTRICITY":0.00030668,"INCLINATION":97.3529,"RA_OF_ASC_NODE":145.6167,"ARG_OF_PERICENTER":124.3269,"MEAN_ANOMALY":235.8259,"EPHEMERIS_TYPE":0,"CLASSIFICATION_TYPE":"U","NORAD_CAT_ID":55690,"ELEMENT_SET_NO":999,"REV_AT_EPOCH":16894,"BSTAR":0.00035630129,"MEAN_MOTION_DOT":8.456e-5,"MEAN_MOTION_DDOT":0},{"OBJECT_NAME":"OBJECT F","OBJECT_ID":"2024-153F","EPOCH":"2026-03-09T23:13:25.507776","MEAN_MOTION":15.23037528,"ECCENTRICITY":0.00053669,"INCLINATION":97.6558,"RA_OF_ASC_NODE":203.2719,"ARG_OF_PERICENTER":225.0651,"MEAN_ANOMALY":135.0151,"EPHEMERIS_TYPE":0,"CLASSIFICATION_TYPE":"U","NORAD_CAT_ID":60750,"ELEMENT_SET_NO":999,"REV_AT_EPOCH":8468,"BSTAR":0.00084475391,"MEAN_MOTION_DOT":0.00019856,"MEAN_MOTION_DDOT":0}]
